NORAD_CAT_ID,OBJECT_NAME,OBJECT_TYPE,EPOCH,MEAN_MOTION,ECCENTRICITY,INCLINATION,RA_OF_ASC_NODE,ARG_OF_PERICENTER,MEAN_ANOMALY,BSTAR,MEAN_MOTION_DOT,MEAN_MOTION_DDOT,TLE_LINE0,TLE_LINE1,TLE_LINE2,SEMIMAJOR_AXIS,PERIOD,APOGEE,PERIGEE,DECAYED
52357.0,STARLINK-3821,PAYLOAD,2023-05-07 03:55:11,15.08839531,0.0001173,53.2145,176.7527,90.3518,269.7609,6.4683e-05,7.42e-06,0.0,0 STARLINK-3821,1 52357U 22045AC  23127.16332305  .00000742  00000-0  64683-4 0  9997,2 52357  53.2145 176.7527 0001173  90.3518 269.7609 15.08839531 59159,6917.882,95.438,540.558,538.935,0.0
52357.0,STARLINK-3821,PAYLOAD,2023-05-07 10:16:43,15.08841977,0.0001158,53.2148,175.5634,91.0896,269.0229,7.5261e-05,9.1e-06,0.0,0 STARLINK-3821,1 52357U 22045AC  23127.42828122  .00000910  00000-0  75261-4 0  9994,2 52357  53.2148 175.5634 0001158  91.0896 269.0229 15.08841977 59190,6917.874,95.437,540.54,538.938,0.0
52357.0,STARLINK-3821,PAYLOAD,2023-05-07 19:49:02,15.08841794,0.0001148,53.2149,173.7795,86.8604,273.252,8.1444e-05,1.009e-05,0.0,0 STARLINK-3821,1 52357U 22045AC  23127.82572110  .00001009  00000-0  81444-4 0  9991,2 52357  53.2149 173.7795 0001148  86.8604 273.2520 15.08841794 59252,6917.875,95.437,540.534,538.946,0.0
52357.0,STARLINK-3821,PAYLOAD,2023-05-08 10:07:31,15.08829653,0.0001172,53.2158,171.1052,96.9336,263.179,5.4349e-05,5.77e-06,0.0,0 STARLINK-3821,1 52357U 22045AC  23128.42189231  .00000577  00000-0  54349-4 0  9999,2 52357  53.2158 171.1052 0001172  96.9336 263.1790 15.08829653 59348,6917.912,95.438,540.588,538.966,0.0
52357.0,STARLINK-3821,PAYLOAD,2023-05-08 19:39:49,15.08838747,0.0001241,53.2159,169.3208,95.4035,264.7098,4.5759e-05,4.4e-06,0.0,0 STARLINK-3821,1 52357U 22045AC  23128.81932814  .00000440  00000-0  45759-4 0  9999,2 52357  53.2159 169.3208 0001241  95.4035 264.7098 15.08838747 59407,6917.884,95.438,540.608,538.891,0.0
52357.0,STARLINK-3821,PAYLOAD,2023-05-09 09:58:17,15.08842396,0.0001312,53.2163,166.6457,99.7483,260.3657,9.4158e-05,1.211e-05,0.0,0 STARLINK-3821,1 52357U 22045AC  23129.41548480  .00001211  00000-0  94158-4 0  9992,2 52357  53.2163 166.6457 0001312  99.7483 260.3657 15.08842396 59498,6917.873,95.437,540.646,538.83,0.0
52357.0,STARLINK-3821,PAYLOAD,2023-05-10 09:49:05,15.08837511,0.0001287,53.2159,162.1828,85.69,274.4239,6.8868e-05,8.08e-06,0.0,0 STARLINK-3821,1 52357U 22045AC  23130.40909079  .00000808  00000-0  68868-4 0  9998,2 52357  53.2159 162.1828 0001287  85.6900 274.4239 15.08837511 59647,6917.888,95.438,540.643,538.863,0.0
52357.0,STARLINK-3821,PAYLOAD,2023-05-10 19:21:24,15.08840623,0.0001334,53.2164,160.3993,85.7652,274.3493,9.1927e-05,1.175e-05,0.0,0 STARLINK-3821,1 52357U 22045AC  23130.80652880  .00001175  00000-0  91927-4 0  9997,2 52357  53.2164 160.3993 0001334  85.7652 274.3493 15.08840623 59700,6917.878,95.438,540.666,538.821,0.0
52357.0,STARLINK-3821,PAYLOAD,2023-05-11 08:04:29,15.0881321,0.0001178,53.2158,158.0205,92.3676,267.7451,0.00045733,6.993e-05,0.0,0 STARLINK-3821,1 52357U 22045AC  23131.33645232  .00006993  00000-0  45733-3 0  9995,2 52357  53.2158 158.0205 0001178  92.3676 267.7451 15.08813210 59789,6917.962,95.439,540.642,539.012,0.0
52357.0,STARLINK-3821,PAYLOAD,2023-05-11 19:12:10,15.08843127,0.0001346,53.2157,155.9388,80.3559,279.7585,4.4779e-05,4.25e-06,0.0,0 STARLINK-3821,1 52357U 22045AC  23131.80012718  .00000425  00000-0  44779-4 0  9998,2 52357  53.2157 155.9388 0001346  80.3559 279.7585 15.08843127 59859,6917.871,95.437,540.667,538.805,0.0
52357.0,STARLINK-3821,PAYLOAD,2023-05-12 04:44:30,15.08835984,0.000132,53.2156,154.1549,81.6109,278.5033,5.2912e-05,5.54e-06,0.0,0 STARLINK-3821,1 52357U 22045AC  23132.19757191  .00000554  00000-0  52912-4 0  9993,2 52357  53.2156 154.1549 0001320  81.6109 278.5033 15.08835984 59919,6917.893,95.438,540.671,538.845,0.0
52357.0,STARLINK-3821,PAYLOAD,2023-05-12 07:55:16,15.08837898,0.0001292,53.2157,153.56,82.2,277.9139,3.7312e-05,3.06e-06,0.0,0 STARLINK-3821,1 52357U 22045AC  23132.33005136  .00000306  00000-0  37312-4 0  9996,2 52357  53.2157 153.5600 0001292  82.2000 277.9139 15.08837898 59934,6917.887,95.438,540.646,538.858,0.0
52357.0,STARLINK-3821,PAYLOAD,2023-05-12 22:13:44,15.08843252,0.0001291,53.2157,150.8835,82.5234,277.5905,6.4819e-05,7.44e-06,0.0,0 STARLINK-3821,1 52357U 22045AC  23132.92620705  .00000744  00000-0  64819-4 0  9994,2 52357  53.2157 150.8835 0001291  82.5234 277.5905 15.08843252 60025,6917.87,95.437,540.629,538.842,0.0
52357.0,STARLINK-3821,PAYLOAD,2023-05-13 07:46:02,15.088498,0.0001246,53.2157,149.0982,90.2135,269.9,0.00012126,1.643e-05,0.0,0 STARLINK-3821,1 52357U 22045AC  23133.32363980  .00001643  00000-0  12126-3 0  9990,2 52357  53.2157 149.0982 0001246  90.2135 269.9000 15.08849800 60086,6917.85,95.437,540.577,538.853,0.0
52357.0,STARLINK-3821,PAYLOAD,2023-05-14 06:01:27,15.08832374,0.0001305,53.2159,144.9337,110.2599,249.8534,2.8284e-05,1.62e-06,0.0,0 STARLINK-3821,1 52357U 22045AC  23134.25101400  .00000162  00000-0  28284-4 0  9998,2 52357  53.2159 144.9337 0001305 110.2599 249.8534 15.08832374 60222,6917.904,95.438,540.671,538.866,0.0
52357.0,STARLINK-3821,PAYLOAD,2023-05-14 17:09:09,15.08833086,0.0001286,53.2165,142.8537,107.5107,252.6026,-3.0685e-06,-3.37e-06,0.0,0 STARLINK-3821,1 52357U 22045AC  23134.71469615 -.00000337  00000-0 -30685-5 0  9999,2 52357  53.2165 142.8537 0001286 107.5107 252.6026 15.08833086 60296,6917.902,95.438,540.656,538.877,0.0
52357.0,STARLINK-3821,PAYLOAD,2023-05-15 07:27:37,15.08841064,0.0001178,53.216,140.1774,90.867,269.2457,-6.0018e-06,-3.83e-06,0.0,0 STARLINK-3821,1 52357U 22045AC  23135.31085240 -.00000383  00000-0 -60018-5 0  9998,2 52357  53.2160 140.1774 0001178  90.8670 269.2457 15.08841064 60381,6917.877,95.437,540.557,538.927,0.0
52357.0,STARLINK-3821,PAYLOAD,2023-05-15 16:59:56,15.08835791,0.0001147,53.2157,138.3933,95.2161,264.8962,6.0967e-05,6.82e-06,0.0,0 STARLINK-3821,1 52357U 22045AC  23135.70829411  .00000682  00000-0  60967-4 0  9999,2 52357  53.2157 138.3933 0001147  95.2161 264.8962 15.08835791 60442,6917.893,95.438,540.552,538.965,0.0
52357.0,STARLINK-3821,PAYLOAD,2023-05-16 08:53:48,15.08836678,0.0001151,53.2159,135.4198,94.9867,265.1256,0.00012509,1.703e-05,0.0,0 STARLINK-3821,1 52357U 22045AC  23136.37069467  .00001703  00000-0  12509-3 0  9993,2 52357  53.2159 135.4198 0001151  94.9867 265.1256 15.08836678 60545,6917.891,95.438,540.552,538.959,0.0
52357.0,STARLINK-3821,PAYLOAD,2023-05-16 16:50:43,15.08836318,0.0001153,53.2159,133.9328,92.5603,267.5521,9.9988e-05,1.304e-05,0.0,0 STARLINK-3821,1 52357U 22045AC  23136.70189627  .00001304  00000-0  99988-4 0  9995,2 52357  53.2159 133.9328 0001153  92.5603 267.5521 15.08836318 60594,6917.892,95.438,540.554,538.959,0.0
52357.0,STARLINK-3821,PAYLOAD,2023-05-17 16:41:31,15.08836392,0.0001224,53.2158,129.4721,88.1219,271.9913,3.0565e-05,1.99e-06,0.0,0 STARLINK-3821,1 52357U 22045AC  23137.69549940  .00000199  00000-0  30565-4 0  9999,2 52357  53.2158 129.4721 0001224  88.1219 271.9913 15.08836392 60746,6917.891,95.438,540.603,538.91,0.0
52357.0,STARLINK-3821,PAYLOAD,2023-05-18 06:59:59,15.08838718,0.0001227,53.2162,126.7958,87.7922,272.321,2.8428e-05,1.65e-06,0.0,0 STARLINK-3821,1 52357U 22045AC  23138.29165859  .00000165  00000-0  28428-4 0  9997,2 52357  53.2162 126.7958 0001227  87.7922 272.3210 15.08838718 60831,6917.884,95.438,540.598,538.9,0.0
52357.0,STARLINK-3821,PAYLOAD,2023-05-18 18:07:41,15.088391,0.0001212,53.2163,124.7141,87.1263,272.9868,2.8113e-05,1.6e-06,0.0,0 STARLINK-3821,1 52357U 22045AC  23138.75533859  .00000160  00000-0  28113-4 0  9993,2 52357  53.2163 124.7141 0001212  87.1263 272.9868 15.08839100 60909,6917.883,95.438,540.587,538.91,0.0
52357.0,STARLINK-3821,PAYLOAD,2023-05-19 05:15:23,15.08839456,0.0001204,53.2164,122.6325,86.911,273.202,5.2e-05,5.4e-06,0.0,0 STARLINK-3821,1 52357U 22045AC  23139.21901804  .00000540  00000-0  52000-4 0  9998,2 52357  53.2164 122.6325 0001204  86.9110 273.2020 15.08839456 60975,6917.882,95.438,540.58,538.914,0.0
52357.0,STARLINK-3821,PAYLOAD,2023-05-19 16:23:04,15.0884205,0.0001201,53.2166,120.5507,86.7327,273.3802,6.7652e-05,7.89e-06,0.0,0 STARLINK-3821,1 52357U 22045AC  23139.68269554  .00000789  00000-0  67652-4 0  9992,2 52357  53.2166 120.5507 0001201  86.7327 273.3802 15.08842050 61043,6917.874,95.437,540.57,538.908,0.0
52357.0,STARLINK-3821,PAYLOAD,2023-05-20 08:16:55,15.08847796,0.0001214,53.2167,117.5769,87.718,272.3951,0.00012019,1.626e-05,0.0,0 STARLINK-3821,1 52357U 22045AC  23140.34509024  .00001626  00000-0  12019-3 0  9993,2 52357  53.2167 117.5769 0001214  87.7180 272.3951 15.08847796 61149,6917.857,95.437,540.561,538.882,0.0
52357.0,STARLINK-3821,PAYLOAD,2023-05-21 04:56:57,15.08829854,0.0001053,53.2171,113.7093,104.162,255.949,0.00033888,5.108e-05,0.0,0 STARLINK-3821,1 52357U 22045AC  23141.20621531  .00005108  00000-0  33888-3 0  9993,2 52357  53.2171 113.7093 0001053 104.1620 255.9490 15.08829854 61270,6917.911,95.438,540.505,539.048,0.0
52357.0,STARLINK-3821,PAYLOAD,2023-05-21 08:07:42,15.08845742,0.0001294,53.2173,113.1149,93.5846,266.5294,6.7479e-05,7.86e-06,0.0,0 STARLINK-3821,1 52357U 22045AC  23141.33869022  .00000786  00000-0  67479-4 0  9997,2 52357  53.2173 113.1149 0001294  93.5846 266.5294 15.08845742 61292,6917.863,95.437,540.623,538.833,0.0
52357.0,STARLINK-3821,PAYLOAD,2023-05-21 22:26:12,15.08832864,0.0001337,53.2173,110.4369,92.2792,267.8353,-6.0594e-05,-1.252e-05,0.0,0 STARLINK-3821,1 52357U 22045AC  23141.93486394 -.00001252  00000-0 -60594-4 0  9992,2 52357  53.2173 110.4369 0001337  92.2792 267.8353 15.08832864 61381,6917.902,95.438,540.692,538.842,0.0
52357.0,STARLINK-3821,PAYLOAD,2023-05-22 04:47:44,15.08835025,0.0001344,53.218,109.2487,92.2798,267.8348,-4.0787e-05,-9.37e-06,0.0,0 STARLINK-3821,1 52357U 22045AC  23142.19982319 -.00000937  00000-0 -40787-4 0  9990,2 52357  53.2180 109.2487 0001344  92.2798 267.8348 15.08835025 61421,6917.896,95.438,540.69,538.831,0.0
